[{"OBJECT_NAME":"STARLINK-4158","OBJECT_ID":"2022-076AT","EPOCH":"2026-03-09T10:44:17.811168","MEAN_MOTION":15.0883282,"ECCENTRICITY":0.00010668,"INCLINATION":53.2166,"RA_OF_ASC_NODE":85.2085,"ARG_OF_PERICENTER":114.2778,"MEAN_ANOMALY":245.8326,"EPHEMERIS_TYPE":0,"CLASSIFICATION_TYPE":"U","NORAD_CAT_ID":53027,"ELEMENT_SET_NO":999,"REV_AT_EPOCH":20295,"BSTAR":7.6066553e-5,"MEAN_MOTION_DOT":9.23e-6,"MEAN_MOTION_DDOT":0},{"OBJECT_NAME":"CZ-4C R\/B","OBJECT_ID":"2018-031F","EPOCH":"2026-03-09T18:17:36.260736","MEAN_MOTION":15.22605712,"ECCENTRICITY":0.00804945,"INCLINATION":98.1311,"RA_OF_ASC_NODE":341.6719,"ARG_OF_PERICENTER":21.712,"MEAN_ANOMALY":338.7495,"EPHEMERIS_TYPE":0,"CLASSIFICATION_TYPE":"U","NORAD_CAT_ID":43264,"ELEMENT_SET_NO":999,"REV_AT_EPOCH":43612,"BSTAR":0.00044368098,"MEAN_MOTION_DOT":0.00011203,"MEAN_MOTION_DDOT":0}]
